IRIDIUM 155             
1 43573U 18061E   23243.18836054  .00000288  00000+0  95907-4 0  9998
2 43573  86.3966 123.4362 0002390  87.0692 273.0777 14.34219542267013
IRIDIUM 154             
1 43574U 18061F   23242.96002939  .00000280  00000+0  92997-4 0  9999
2 43574  86.3971 123.6155 0001906  88.2857 271.8557 14.34218709267038
IRIDIUM 163             
1 43575U 18061G   23243.77822423  .00000273  00000+0  90592-4 0  9999
2 43575  86.3967 123.2207 0002123  84.6841 275.4597 14.34217164267121
IRIDIUM 156             
1 43576U 18061H   23243.19470571  .00000275  00000+0  91174-4 0  9998
2 43576  86.3966 123.4707 0002334  79.4370 280.7088 14.34216830267034
IRIDIUM 164             
1 43577U 18061J   23242.96636704  .00000279  00000+0  92686-4 0  9998
2 43577  86.3973 123.5904 0002167  78.9565 281.1875 14.34215762267040
IRIDIUM 159             
1 43578U 18061K   23243.77188020  .00000284  00000+0  94413-4 0  9998
2 43578  86.3965 123.2121 0002068  87.0062 273.1370 14.34219871267128
IRIDIUM 180             
1 43922U 19002A   23243.42253628  .00000101  00000+0  29029-4 0  9995
2 43922  86.3929  60.1913 0001930  89.7745 270.3672 14.34217397242682
IRIDIUM 176             
1 43923U 19002B   23243.48793071  .00000420  00000+0  62621-4 0  9992
2 43923  86.6060  60.1993 0002366  88.6659 271.4829 14.72258482249074
IRIDIUM 168             
1 43924U 19002C   23243.48597080  .00000095  00000+0  26795-4 0  9995
2 43924  86.3931  60.2132 0002035  90.5010 269.6419 14.34219083242676
IRIDIUM 173             
1 43925U 19002D   23243.61282546  .00000096  00000+0  27320-4 0  9995
2 43925  86.3928  60.0908 0002079  92.5084 267.6350 14.34216558242679
IRIDIUM 169             
1 43926U 19002E   23243.10402209  .00000374  00000+0  11585-3 0  9994
2 43926  86.4175  91.9431 0005395  99.8549 260.3259 14.38617703243422
IRIDIUM 172             
1 43927U 19002F   23243.60643819  .00000176  00000+0  55893-4 0  9995
2 43927  86.3928  60.0982 0002079  90.9750 269.1684 14.34214406242683
IRIDIUM 175             
1 43928U 19002G   23243.41376260  .00000438  00000+0  65518-4 0  9994
2 43928  86.1490  49.8029 0002209  92.1023 268.0447 14.72249210249051
IRIDIUM 171             
1 43929U 19002H   23243.23859932  .00000095  00000+0  26701-4 0  9997
2 43929  86.3937  60.4453 0001964  88.3554 271.7866 14.34216726242629
IRIDIUM 170             
1 43930U 19002J   23243.90189888  .00000398  00000+0  59235-4 0  9993
2 43930  86.6061  60.0308 0002425  89.5625 270.5870 14.72259243249141
IRIDIUM 167             
1 43931U 19002K   23243.23225620  .00000105  00000+0  30398-4 0  9990
2 43931  86.3928  60.2682 0002017  87.9138 272.2289 14.34216274242620
IRIDIUM 181             
1 56726U 23068S   23243.67067266  .00000364  00000+0  10167-3 0  9999
2 56726  86.8585  99.7666 0002821  57.2483 302.8990 14.43583035 15220
IRIDIUM 177             
1 56727U 23068T   23242.99738709  .00001341  00000+0  17292-3 0  9993
2 56727  86.1934  93.6165 0001946  87.2984 272.8459 14.80235262 15307
IRIDIUM 174             
1 56728U 23068U   23243.66796666  .00001364  00000+0  17594-3 0  9995
2 56728  86.1940  93.3780 0002330  90.5764 269.5724 14.80239320 15404
IRIDIUM 178             
1 56729U 23068V   23243.86492669  .00001298  00000+0  16739-3 0  9990
2 56729  86.5739  96.9957 0002255  91.7395 268.4085 14.80238556 15430
IRIDIUM 179             
1 56730U 23068W   23243.04830301  .00001273  00000+0  16415-3 0  9995
2 56730  86.6748  97.8145 0002147  89.9034 270.2433 14.80234266 15310
